[{"OBJECT_NAME":"IRIDIUM 33 DEB","OBJECT_ID":"1997-051BV","EPOCH":"2026-03-03T12:43:53.643072","MEAN_MOTION":14.8992099,"ECCENTRICITY":0.000241,"INCLINATION":86.2485,"RA_OF_ASC_NODE":251.2672,"ARG_OF_PERICENTER":123.4779,"MEAN_ANOMALY":290.28,"EPHEMERIS_TYPE":0,"CLASSIFICATION_TYPE":"U","NORAD_CAT_ID":33960,"ELEMENT_SET_NO":999,"REV_AT_EPOCH":90068,"BSTAR":0.0031483915,"MEAN_MOTION_DOT":0.00030413,"MEAN_MOTION_DDOT":0},{"OBJECT_NAME":"IRIDIUM 33 DEB","OBJECT_ID":"1997-051CB","EPOCH":"2026-03-03T07:30:48.813408","MEAN_MOTION":14.50007293,"ECCENTRICITY":0.00056623,"INCLINATION":86.3964,"RA_OF_ASC_NODE":11.4327,"ARG_OF_PERICENTER":309.4227,"MEAN_ANOMALY":178.6061,"EPHEMERIS_TYPE":0,"CLASSIFICATION_TYPE":"U","NORAD_CAT_ID":33966,"ELEMENT_SET_NO":999,"REV_AT_EPOCH":89609,"BSTAR":0.00077259977,"MEAN_MOTION_DOT":3.011e-5,"MEAN_MOTION_DDOT":0},{"OBJECT_NAME":"IRIDIUM 33 DEB","OBJECT_ID":"1997-051CE","EPOCH":"2026-03-03T18:19:15.282912","MEAN_MOTION":14.49966884,"ECCENTRICITY":0.0006521,"INCLINATION":86.3503,"RA_OF_ASC_NODE":342.6121,"ARG_OF_PERICENTER":181.6696,"MEAN_ANOMALY":178.4488,"EPHEMERIS_TYPE":0,"CLASSIFICATION_TYPE":"U","NORAD_CAT_ID":34071,"ELEMENT_SET_NO":999,"REV_AT_EPOCH":89508,"BSTAR":0.00081059,"MEAN_MOTION_DOT":3.156e-5,"MEAN_MOTION_DDOT":0},{"OBJECT_NAME":"IRIDIUM 33 DEB","OBJECT_ID":"1997-051CL","EPOCH":"2026-03-03T09:57:31.204800","MEAN_MOTION":14.66472442,"ECCENTRICITY":0.0011989,"INCLINATION":86.3884,"RA_OF_ASC_NODE":15.9158,"ARG_OF_PERICENTER":102.4436,"MEAN_ANOMALY":19.2427,"EPHEMERIS_TYPE":0,"CLASSIFICATION_TYPE":"U","NORAD_CAT_ID":34077,"ELEMENT_SET_NO":999,"REV_AT_EPOCH":89514,"BSTAR":0.0018337871,"MEAN_MOTION_DOT":0.0001019,"MEAN_MOTION_DDOT":0},{"OBJECT_NAME":"IRIDIUM 33 DEB","OBJECT_ID":"1997-051CN","EPOCH":"2026-03-03T18:14:01.587840","MEAN_MOTION":14.8682983,"ECCENTRICITY":0.0009815,"INCLINATION":86.3794,"RA_OF_ASC_NODE":331.7309,"ARG_OF_PERICENTER":60.5936,"MEAN_ANOMALY":353.771,"EPHEMERIS_TYPE":0,"CLASSIFICATION_TYPE":"U","NORAD_CAT_ID":34079,"ELEMENT_SET_NO":999,"REV_AT_EPOCH":90180,"BSTAR":0.0025433,"MEAN_MOTION_DOT":0.00022767,"MEAN_MOTION_DDOT":0},{"OBJECT_NAME":"IRIDIUM 33 DEB","OBJECT_ID":"1997-051CX","EPOCH":"2026-03-03T08:02:40.378848","MEAN_MOTION":14.97450293,"ECCENTRICITY":0.00020813,"INCLINATION":86.3871,"RA_OF_ASC_NODE":353.5292,"ARG_OF_PERICENTER":52.8825,"MEAN_ANOMALY":68.8912,"EPHEMERIS_TYPE":0,"CLASSIFICATION_TYPE":"U","NORAD_CAT_ID":34088,"ELEMENT_SET_NO":999,"REV_AT_EPOCH":89945,"BSTAR":0.0038355553,"MEAN_MOTION_DOT":0.0004489,"MEAN_MOTION_DDOT":0},{"OBJECT_NAME":"IRIDIUM 33 DEB","OBJECT_ID":"1997-051DA","EPOCH":"2026-03-03T08:20:08.123136","MEAN_MOTION":14.89073998,"ECCENTRICITY":0.00336131,"INCLINATION":86.343,"RA_OF_ASC_NODE":29.7083,"ARG_OF_PERICENTER":20.6154,"MEAN_ANOMALY":339.6419,"EPHEMERIS_TYPE":0,"CLASSIFICATION_TYPE":"U","NORAD_CAT_ID":34091,"ELEMENT_SET_NO":999,"REV_AT_EPOCH":89063,"BSTAR":0.0054368807,"MEAN_MOTION_DOT":0.00052104,"MEAN_MOTION_DDOT":0},{"OBJECT_NAME":"IRIDIUM 33 DEB","OBJECT_ID":"1997-051DG","EPOCH":"2026-03-03T17:56:16.644768","MEAN_MOTION":14.35497061,"ECCENTRICITY":0.0083723,"INCLINATION":86.2022,"RA_OF_ASC_NODE":325.645,"ARG_OF_PERICENTER":95.4518,"MEAN_ANOMALY":265.6236,"EPHEMERIS_TYPE":0,"CLASSIFICATION_TYPE":"U","NORAD_CAT_ID":34097,"ELEMENT_SET_NO":999,"REV_AT_EPOCH":88281,"BSTAR":0.0014459,"MEAN_MOTION_DOT":4.347e-5,"MEAN_MOTION_DDOT":0},{"OBJECT_NAME":"IRIDIUM 33 DEB","OBJECT_ID":"1997-051DY","EPOCH":"2026-03-02T15:33:51.295104","MEAN_MOTION":14.4304443,"ECCENTRICITY":0.0051626,"INCLINATION":86.2097,"RA_OF_ASC_NODE":296.9251,"ARG_OF_PERICENTER":188.6069,"MEAN_ANOMALY":171.4252,"EPHEMERIS_TYPE":0,"CLASSIFICATION_TYPE":"U","NORAD_CAT_ID":34145,"ELEMENT_SET_NO":999,"REV_AT_EPOCH":88790,"BSTAR":0.00090403,"MEAN_MOTION_DOT":3.097e-5,"MEAN_MOTION_DDOT":0},{"OBJECT_NAME":"IRIDIUM 33 DEB","OBJECT_ID":"1997-051DZ","EPOCH":"2026-03-03T17:48:19.370304","MEAN_MOTION":14.49700859,"ECCENTRICITY":0.0026112,"INCLINATION":86.2843,"RA_OF_ASC_NODE":314.0177,"ARG_OF_PERICENTER":320.4308,"MEAN_ANOMALY":98.8506,"EPHEMERIS_TYPE":0,"CLASSIFICATION_TYPE":"U","NORAD_CAT_ID":34146,"ELEMENT_SET_NO":999,"REV_AT_EPOCH":89280,"BSTAR":0.00082548,"MEAN_MOTION_DOT":3.209e-5,"MEAN_MOTION_DDOT":0},{"OBJECT_NAME":"IRIDIUM 33 DEB","OBJECT_ID":"1997-051EN","EPOCH":"2026-03-03T06:41:55.063392","MEAN_MOTION":14.38730457,"ECCENTRICITY":0.00293526,"INCLINATION":86.3544,"RA_OF_ASC_NODE":13.889,"ARG_OF_PERICENTER":26.8538,"MEAN_ANOMALY":333.4172,"EPHEMERIS_TYPE":0,"CLASSIFICATION_TYPE":"U","NORAD_CAT_ID":34159,"ELEMENT_SET_NO":999,"REV_AT_EPOCH":89117,"BSTAR":0.00060365992,"MEAN_MOTION_DOT":1.88e-5,"MEAN_MOTION_DDOT":0},{"OBJECT_NAME":"IRIDIUM 33 DEB","OBJECT_ID":"1997-051ES","EPOCH":"2026-03-03T17:32:50.604864","MEAN_MOTION":14.45675425,"ECCENTRICITY":0.0019106,"INCLINATION":86.331,"RA_OF_ASC_NODE":327.677,"ARG_OF_PERICENTER":227.4223,"MEAN_ANOMALY":196.6458,"EPHEMERIS_TYPE":0,"CLASSIFICATION_TYPE":"U","NORAD_CAT_ID":34350,"ELEMENT_SET_NO":999,"REV_AT_EPOCH":89463,"BSTAR":0.00042897,"MEAN_MOTION_DOT":1.54e-5,"MEAN_MOTION_DDOT":0},{"OBJECT_NAME":"IRIDIUM 33 DEB","OBJECT_ID":"1997-051FJ","EPOCH":"2026-03-03T07:41:19.145472","MEAN_MOTION":14.54929395,"ECCENTRICITY":0.00177568,"INCLINATION":86.3722,"RA_OF_ASC_NODE":14.2329,"ARG_OF_PERICENTER":226.7931,"MEAN_ANOMALY":257.2808,"EPHEMERIS_TYPE":0,"CLASSIFICATION_TYPE":"U","NORAD_CAT_ID":34366,"ELEMENT_SET_NO":999,"REV_AT_EPOCH":89353,"BSTAR":0.0014695399,"MEAN_MOTION_DOT":6.351e-5,"MEAN_MOTION_DDOT":0},{"OBJECT_NAME":"IRIDIUM 33 DEB","OBJECT_ID":"1997-051FT","EPOCH":"2026-03-03T17:10:10.558272","MEAN_MOTION":14.18165655,"ECCENTRICITY":0.0100773,"INCLINATION":86.4352,"RA_OF_ASC_NODE":150.0853,"ARG_OF_PERICENTER":228.7731,"MEAN_ANOMALY":285.0275,"EPHEMERIS_TYPE":0,"CLASSIFICATION_TYPE":"U","NORAD_CAT_ID":34375,"ELEMENT_SET_NO":999,"REV_AT_EPOCH":87859,"BSTAR":0.00056788,"MEAN_MOTION_DOT":1.244e-5,"MEAN_MOTION_DDOT":0},{"OBJECT_NAME":"IRIDIUM 33 DEB","OBJECT_ID":"1997-051FU","EPOCH":"2026-03-03T10:21:27.365472","MEAN_MOTION":14.64408697,"ECCENTRICITY":0.00224262,"INCLINATION":86.3004,"RA_OF_ASC_NODE":330.2226,"ARG_OF_PERICENTER":258.2549,"MEAN_ANOMALY":101.6148,"EPHEMERIS_TYPE":0,"CLASSIFICATION_TYPE":"U","NORAD_CAT_ID":34376,"ELEMENT_SET_NO":999,"REV_AT_EPOCH":89187,"BSTAR":0.0018832913,"MEAN_MOTION_DOT":0.0001002,"MEAN_MOTION_DDOT":0},{"OBJECT_NAME":"IRIDIUM 33 DEB","OBJECT_ID":"1997-051GB","EPOCH":"2026-03-03T17:12:14.520672","MEAN_MOTION":15.01687949,"ECCENTRICITY":0.000851,"INCLINATION":86.3954,"RA_OF_ASC_NODE":334.489,"ARG_OF_PERICENTER":156.2325,"MEAN_ANOMALY":268.3149,"EPHEMERIS_TYPE":0,"CLASSIFICATION_TYPE":"U","NORAD_CAT_ID":34486,"ELEMENT_SET_NO":999,"REV_AT_EPOCH":90199,"BSTAR":0.0032969,"MEAN_MOTION_DOT":0.00043096,"MEAN_MOTION_DDOT":0}]
