IRIDIUM 33 DEB          
1 33960U 97051BV  26062.53048198  .00030413  00000+0  31484-2 0  9999
2 33960  86.2485 251.2672 0002410 123.4779 290.2800 14.89920990900686
IRIDIUM 33 DEB          
1 33966U 97051CB  26062.31306497  .00003011  00000+0  77260-3 0  9997
2 33966  86.3964  11.4327 0005662 309.4227 178.6061 14.50007293896091
IRIDIUM 33 DEB          
1 34071U 97051CE  26062.76337133  .00003156  00000+0  81059-3 0  9996
2 34071  86.3503 342.6121 0006521 181.6696 178.4488 14.49966884895081
IRIDIUM 33 DEB          
1 34077U 97051CL  26062.41494450  .00010190  00000+0  18338-2 0  9995
2 34077  86.3884  15.9158 0011989 102.4436  19.2427 14.66472442895149
IRIDIUM 33 DEB          
1 34079U 97051CN  26062.75974060  .00022767  00000+0  25433-2 0  9991
2 34079  86.3794 331.7309 0009815  60.5936 353.7710 14.86829830901803
IRIDIUM 33 DEB          
1 34088U 97051CX  26062.33518957  .00044890  00000+0  38356-2 0  9993
2 34088  86.3871 353.5292 0002081  52.8825  68.8912 14.97450293899451
IRIDIUM 33 DEB          
1 34091U 97051DA  26062.34731624  .00052104  00000+0  54369-2 0  9995
2 34091  86.3430  29.7083 0033613  20.6154 339.6419 14.89073998890635
IRIDIUM 33 DEB          
1 34097U 97051DG  26062.74741487  .00004347  00000+0  14459-2 0  9995
2 34097  86.2022 325.6450 0083723  95.4518 265.6236 14.35497061882812
IRIDIUM 33 DEB          
1 34145U 97051DY  26061.64851036  .00003097  00000+0  90403-3 0  9994
2 34145  86.2097 296.9251 0051626 188.6069 171.4252 14.43044430887904
IRIDIUM 33 DEB          
1 34146U 97051DZ  26062.74189086  .00003209  00000+0  82548-3 0  9992
2 34146  86.2843 314.0177 0026112 320.4308  98.8506 14.49700859892806
IRIDIUM 33 DEB          
1 34159U 97051EN  26062.27910953  .00001880  00000+0  60366-3 0  9996
2 34159  86.3544  13.8890 0029352  26.8538 333.4172 14.38730457891177
IRIDIUM 33 DEB          
1 34350U 97051ES  26062.73114126  .00001540  00000+0  42897-3 0  9990
2 34350  86.3310 327.6770 0019106 227.4223 196.6458 14.45675425894631
IRIDIUM 33 DEB          
1 34366U 97051FJ  26062.32036048  .00006351  00000+0  14695-2 0  9997
2 34366  86.3722  14.2329 0017756 226.7931 257.2808 14.54929395893530
IRIDIUM 33 DEB          
1 34375U 97051FT  26062.71539998  .00001244  00000+0  56788-3 0  9998
2 34375  86.4352 150.0853 0100773 228.7731 285.0275 14.18165655878590
IRIDIUM 33 DEB          
1 34376U 97051FU  26062.43156673  .00010020  00000+0  18833-2 0  9993
2 34376  86.3004 330.2226 0022426 258.2549 101.6148 14.64408697891878
IRIDIUM 33 DEB          
1 34486U 97051GB  26062.71683473  .00043096  00000+0  32969-2 0  9994
2 34486  86.3954 334.4890 0008510 156.2325 268.3149 15.01687949901992
